[{"OBJECT_NAME":"IRIDIUM 173","OBJECT_ID":"2019-002D","EPOCH":"2026-03-29T02:13:06.898080","MEAN_MOTION":14.34218505,"ECCENTRICITY":0.0002068,"INCLINATION":86.4005,"RA_OF_ASC_NODE":27.0253,"ARG_OF_PERICENTER":85.6879,"MEAN_ANOMALY":274.4553,"EPHEMERIS_TYPE":0,"CLASSIFICATION_TYPE":"U","NORAD_CAT_ID":43925,"ELEMENT_SET_NO":999,"REV_AT_EPOCH":37747,"BSTAR":6.3972e-5,"MEAN_MOTION_DOT":1.99e-6,"MEAN_MOTION_DDOT":0},{"OBJECT_NAME":"IRIDIUM 169","OBJECT_ID":"2019-002E","EPOCH":"2026-03-29T04:38:42.923904","MEAN_MOTION":14.38609002,"ECCENTRICITY":0.0001857,"INCLINATION":86.42,"RA_OF_ASC_NODE":58.6244,"ARG_OF_PERICENTER":104.9785,"MEAN_ANOMALY":255.1618,"EPHEMERIS_TYPE":0,"CLASSIFICATION_TYPE":"U","NORAD_CAT_ID":43926,"ELEMENT_SET_NO":999,"REV_AT_EPOCH":37872,"BSTAR":0.00012525,"MEAN_MOTION_DOT":4.03e-6,"MEAN_MOTION_DDOT":0},{"OBJECT_NAME":"IRIDIUM 172","OBJECT_ID":"2019-002F","EPOCH":"2026-03-29T02:03:58.958784","MEAN_MOTION":14.34218042,"ECCENTRICITY":0.0002218,"INCLINATION":86.4007,"RA_OF_ASC_NODE":27.0358,"ARG_OF_PERICENTER":81.215,"MEAN_ANOMALY":278.9297,"EPHEMERIS_TYPE":0,"CLASSIFICATION_TYPE":"U","NORAD_CAT_ID":43927,"ELEMENT_SET_NO":999,"REV_AT_EPOCH":37748,"BSTAR":3.027e-5,"MEAN_MOTION_DOT":1.05e-6,"MEAN_MOTION_DDOT":0},{"OBJECT_NAME":"IRIDIUM 175","OBJECT_ID":"2019-002G","EPOCH":"2026-03-29T03:31:28.380864","MEAN_MOTION":14.43580905,"ECCENTRICITY":0.0005032,"INCLINATION":86.4532,"RA_OF_ASC_NODE":323.9982,"ARG_OF_PERICENTER":111.8685,"MEAN_ANOMALY":248.3052,"EPHEMERIS_TYPE":0,"CLASSIFICATION_TYPE":"U","NORAD_CAT_ID":43928,"ELEMENT_SET_NO":999,"REV_AT_EPOCH":38743,"BSTAR":0.00010096,"MEAN_MOTION_DOT":3.62e-6,"MEAN_MOTION_DDOT":0},{"OBJECT_NAME":"IRIDIUM 171","OBJECT_ID":"2019-002H","EPOCH":"2026-03-29T04:57:30.873312","MEAN_MOTION":14.34218302,"ECCENTRICITY":0.0002299,"INCLINATION":86.4014,"RA_OF_ASC_NODE":27.2829,"ARG_OF_PERICENTER":89.2491,"MEAN_ANOMALY":270.8968,"EPHEMERIS_TYPE":0,"CLASSIFICATION_TYPE":"U","NORAD_CAT_ID":43929,"ELEMENT_SET_NO":999,"REV_AT_EPOCH":37749,"BSTAR":8.6797e-5,"MEAN_MOTION_DOT":2.63e-6,"MEAN_MOTION_DDOT":0},{"OBJECT_NAME":"IRIDIUM 170","OBJECT_ID":"2019-002J","EPOCH":"2026-03-29T02:22:53.553216","MEAN_MOTION":14.72249549,"ECCENTRICITY":0.0002463,"INCLINATION":86.6128,"RA_OF_ASC_NODE":27.013,"ARG_OF_PERICENTER":82.7238,"MEAN_ANOMALY":277.4259,"EPHEMERIS_TYPE":0,"CLASSIFICATION_TYPE":"U","NORAD_CAT_ID":43930,"ELEMENT_SET_NO":999,"REV_AT_EPOCH":38747,"BSTAR":0.00016353,"MEAN_MOTION_DOT":1.056e-5,"MEAN_MOTION_DDOT":0},{"OBJECT_NAME":"IRIDIUM 167","OBJECT_ID":"2019-002K","EPOCH":"2026-03-29T04:48:22.807008","MEAN_MOTION":14.34219781,"ECCENTRICITY":0.0002284,"INCLINATION":86.4006,"RA_OF_ASC_NODE":27.0098,"ARG_OF_PERICENTER":94.5513,"MEAN_ANOMALY":265.5944,"EPHEMERIS_TYPE":0,"CLASSIFICATION_TYPE":"U","NORAD_CAT_ID":43931,"ELEMENT_SET_NO":999,"REV_AT_EPOCH":37749,"BSTAR":0.00011375,"MEAN_MOTION_DOT":3.38e-6,"MEAN_MOTION_DDOT":0},{"OBJECT_NAME":"IRIDIUM 181","OBJECT_ID":"2023-068S","EPOCH":"2026-03-29T05:44:09.242304","MEAN_MOTION":14.43309557,"ECCENTRICITY":0.000254,"INCLINATION":86.4445,"RA_OF_ASC_NODE":90.2175,"ARG_OF_PERICENTER":84.6557,"MEAN_ANOMALY":275.4934,"EPHEMERIS_TYPE":0,"CLASSIFICATION_TYPE":"U","NORAD_CAT_ID":56726,"ELEMENT_SET_NO":999,"REV_AT_EPOCH":15090,"BSTAR":7.5247e-5,"MEAN_MOTION_DOT":2.73e-6,"MEAN_MOTION_DDOT":0},{"OBJECT_NAME":"IRIDIUM 177","OBJECT_ID":"2023-068T","EPOCH":"2026-03-29T05:09:11.909088","MEAN_MOTION":14.80222237,"ECCENTRICITY":0.0002164,"INCLINATION":86.2021,"RA_OF_ASC_NODE":6.761,"ARG_OF_PERICENTER":85.5433,"MEAN_ANOMALY":274.6035,"EPHEMERIS_TYPE":0,"CLASSIFICATION_TYPE":"U","NORAD_CAT_ID":56727,"ELEMENT_SET_NO":999,"REV_AT_EPOCH":15453,"BSTAR":0.00022001,"MEAN_MOTION_DOT":1.698e-5,"MEAN_MOTION_DDOT":0},{"OBJECT_NAME":"IRIDIUM 174","OBJECT_ID":"2023-068U","EPOCH":"2026-03-28T21:11:26.610432","MEAN_MOTION":14.72253945,"ECCENTRICITY":0.0002458,"INCLINATION":86.6135,"RA_OF_ASC_NODE":27.2425,"ARG_OF_PERICENTER":81.0096,"MEAN_ANOMALY":279.1399,"EPHEMERIS_TYPE":0,"CLASSIFICATION_TYPE":"U","NORAD_CAT_ID":56728,"ELEMENT_SET_NO":999,"REV_AT_EPOCH":15420,"BSTAR":2.9048e-5,"MEAN_MOTION_DOT":2.08e-6,"MEAN_MOTION_DDOT":0},{"OBJECT_NAME":"IRIDIUM 178","OBJECT_ID":"2023-068V","EPOCH":"2026-03-29T04:53:27.524256","MEAN_MOTION":14.8023602,"ECCENTRICITY":0.0002842,"INCLINATION":86.6513,"RA_OF_ASC_NODE":58.774,"ARG_OF_PERICENTER":89.5669,"MEAN_ANOMALY":270.5878,"EPHEMERIS_TYPE":0,"CLASSIFICATION_TYPE":"U","NORAD_CAT_ID":56729,"ELEMENT_SET_NO":999,"REV_AT_EPOCH":15453,"BSTAR":0.00021341,"MEAN_MOTION_DOT":1.648e-5,"MEAN_MOTION_DDOT":0},{"OBJECT_NAME":"IRIDIUM 179","OBJECT_ID":"2023-068W","EPOCH":"2026-03-29T04:45:41.681376","MEAN_MOTION":14.80227714,"ECCENTRICITY":0.0002641,"INCLINATION":86.6736,"RA_OF_ASC_NODE":67.5237,"ARG_OF_PERICENTER":94.9783,"MEAN_ANOMALY":265.174,"EPHEMERIS_TYPE":0,"CLASSIFICATION_TYPE":"U","NORAD_CAT_ID":56730,"ELEMENT_SET_NO":999,"REV_AT_EPOCH":15453,"BSTAR":0.00023547,"MEAN_MOTION_DOT":1.815e-5,"MEAN_MOTION_DDOT":0}]
