IRIDIUM 173             
1 43925U 19002D   26088.09244095  .00000199  00000+0  63972-4 0  9991
2 43925  86.4005  27.0253 0002068  85.6879 274.4553 14.34218505377477
IRIDIUM 169             
1 43926U 19002E   26088.19355236  .00000403  00000+0  12525-3 0  9998
2 43926  86.4200  58.6244 0001857 104.9785 255.1618 14.38609002378728
IRIDIUM 172             
1 43927U 19002F   26088.08609906  .00000105  00000+0  30270-4 0  9990
2 43927  86.4007  27.0358 0002218  81.2150 278.9297 14.34218042377489
IRIDIUM 175             
1 43928U 19002G   26088.14685626  .00000362  00000+0  10096-3 0  9999
2 43928  86.4532 323.9982 0005032 111.8685 248.3052 14.43580905387430
IRIDIUM 171             
1 43929U 19002H   26088.20660733  .00000263  00000+0  86797-4 0  9991
2 43929  86.4014  27.2829 0002299  89.2491 270.8968 14.34218302377495
IRIDIUM 170             
1 43930U 19002J   26088.09923094  .00001056  00000+0  16353-3 0  9993
2 43930  86.6128  27.0130 0002463  82.7238 277.4259 14.72249549387472
IRIDIUM 167             
1 43931U 19002K   26088.20026397  .00000338  00000+0  11375-3 0  9998
2 43931  86.4006  27.0098 0002284  94.5513 265.5944 14.34219781377490
IRIDIUM 181             
1 56726U 23068S   26088.23899586  .00000273  00000+0  75247-4 0  9999
2 56726  86.4445  90.2175 0002540  84.6557 275.4934 14.43309557150909
IRIDIUM 177             
1 56727U 23068T   26088.21472117  .00001698  00000+0  22001-3 0  9996
2 56727  86.2021   6.7610 0002164  85.5433 274.6035 14.80222237154535
IRIDIUM 174             
1 56728U 23068U   26087.88294688  .00000208  00000+0  29048-4 0  9999
2 56728  86.6135  27.2425 0002458  81.0096 279.1399 14.72253945154208
IRIDIUM 178             
1 56729U 23068V   26088.20379079  .00001648  00000+0  21341-3 0  9991
2 56729  86.6513  58.7740 0002842  89.5669 270.5878 14.80236020154531
IRIDIUM 179             
1 56730U 23068W   26088.19839909  .00001815  00000+0  23547-3 0  9990
2 56730  86.6736  67.5237 0002641  94.9783 265.1740 14.80227714154531
